{
  "norad_id": 53008,
  "name": "STARLINK-4275",
  "history": [
    {
      "epoch": "2026-05-05T14:56:43.058112Z",
      "apogee_km": 540.4863314767108,
      "perigee_km": 538.9837696673276,
      "latitude_deg": 5.204728653198667e-05,
      "longitude_deg": 110.8555749326925,
      "height_km": 540.6774535499444,
      "semi_major_axis_km": 6917.872050572019,
      "eccentricity": 0.0001086,
      "inclination_deg": 53.2174,
      "raan_deg": 198.53,
      "arg_perigee_deg": 93.5353,
      "mean_anomaly_deg": 266.5764,
      "mean_motion_rev_day": 15.08842728
    },
    {
      "epoch": "2026-05-06T11:36:44.941536Z",
      "apogee_km": 540.5879686898361,
      "perigee_km": 538.9402630020631,
      "latitude_deg": 6.730246990649281e-05,
      "longitude_deg": 156.13216404965883,
      "height_km": 540.7797346883475,
      "semi_major_axis_km": 6917.901115845949,
      "eccentricity": 0.00011909,
      "inclination_deg": 53.2165,
      "raan_deg": 194.6632,
      "arg_perigee_deg": 98.3594,
      "mean_anomaly_deg": 261.7534,
      "mean_motion_rev_day": 15.08833219
    },
    {
      "epoch": "2026-05-07T13:02:55.055328Z",
      "apogee_km": 540.4396719587703,
      "perigee_km": 539.0450274818659,
      "latitude_deg": -4.242670673475579e-05,
      "longitude_deg": 128.7883125507418,
      "height_km": 540.6095483340453,
      "semi_major_axis_km": 6917.879349720318,
      "eccentricity": 0.0001008,
      "inclination_deg": 53.2169,
      "raan_deg": 189.9062,
      "arg_perigee_deg": 87.6213,
      "mean_anomaly_deg": 272.4894,
      "mean_motion_rev_day": 15.0884034
    },
    {
      "epoch": "2026-05-08T20:50:37.745088Z",
      "apogee_km": 540.4438296332864,
      "perigee_km": 539.0533346312777,
      "latitude_deg": 5.0304301063181785e-06,
      "longitude_deg": 4.6077876914874425,
      "height_km": 540.5060749035821,
      "semi_major_axis_km": 6917.885582132281,
      "eccentricity": 0.0001005,
      "inclination_deg": 53.2167,
      "raan_deg": 183.9593,
      "arg_perigee_deg": 78.4966,
      "mean_anomaly_deg": 281.6139,
      "mean_motion_rev_day": 15.08838301
    },
    {
      "epoch": "2026-05-09T11:09:05.726304Z",
      "apogee_km": 540.4222214768251,
      "perigee_km": 539.0483320426611,
      "latitude_deg": -1.1590627736579811e-05,
      "longitude_deg": 146.7271863082899,
      "height_km": 540.4818199675636,
      "semi_major_axis_km": 6917.872276759743,
      "eccentricity": 9.93e-05,
      "inclination_deg": 53.2168,
      "raan_deg": 181.2829,
      "arg_perigee_deg": 77.4185,
      "mean_anomaly_deg": 282.6918,
      "mean_motion_rev_day": 15.08842654
    }
  ]
}